#aV2009  7 30  0  0   .00000000      96 DD+AD WGS84 FIT  NGA
## 1542 345600.00000000   900.00000000 55042  .0000000000000
+   31     1  2  3  4  6  7  8  9 10 11 12 13 14 15 16 17 18
+         19 20 21 22 23 24 25 26 27 28 29 30 31 32  0  0  0
+          0  0  0  0  0  0  0  0  0  0  0  0  0  0  0  0  0
+          0  0  0  0  0  0  0  0  0  0  0  0  0  0  0  0  0
+          0  0  0  0  0  0  0  0  0  0  0  0  0  0  0  0  0
++         0  0  0  0  0  0  0  0  0  0  0  0  0  0  0  0  0
++         0  0  0  0  0  0  0  0  0  0  0  0  0  0  0  0  0
++         0  0  0  0  0  0  0  0  0  0  0  0  0  0  0  0  0
++         0  0  0  0  0  0  0  0  0  0  0  0  0  0  0  0  0
++         0  0  0  0  0  0  0  0  0  0  0  0  0  0  0  0  0
%c cc cc ccc ccc cccc cccc cccc cccc ccccc ccccc ccccc ccccc
%c cc cc ccc ccc cccc cccc cccc cccc ccccc ccccc ccccc ccccc
%f  0.0000000  0.000000000  0.00000000000  0.000000000000000
%f  0.0000000  0.000000000  0.00000000000  0.000000000000000
%i    0    0    0    0      0      0      0      0         0
%i    0    0    0    0      0      0      0      0         0
/*      NGA, ST. LOUIS,MO.                                  
/*   EPHEMERIS COMPUTED FROM  3 DAYS OF DATA                
/* CCCCCCCCCCCCCCCCCCCCCCCCCCCCCCCCCCCCCCCCCCCCCCCCCCCCCCCCC
/* CCCCCCCCCCCCCCCCCCCCCCCCCCCCCCCCCCCCCCCCCCCCCCCCCCCCCCCCC
*  2009  7 30 19 30   .00000000                                                 
P  1  15524.476470  19274.552912  -9877.604281    -61.885167                    
V  1 -11503.274805  -5137.032001 -28276.251675       .024079                    
P  2 -22835.681018  12856.873451   2475.193050    162.572238                    
V  2  -4602.636611  -2028.212626 -31362.142353       .020066                    
P  3  10643.310039 -18940.307028  14714.742414    427.097249                    
V  3   3536.306264  19415.434784  22312.585681       .051748                    
P  4 -25094.334100   5019.398909  -7921.446433   -197.823242                    
V  4   7730.368422  -6702.495167 -28871.510316      -.166689                    
P  6  13616.022488 -14846.183559  17461.154857    206.666605                    
V  6   1099.870247  21995.976694  18116.358749       .098000                    
P  7 -11044.511948 -11156.202349  21419.504154     14.290303                    
V  7  24543.255099 -11753.823425   6393.027207      -.006698                    
P  8 -21847.208150  -2318.727836  15240.318321   -214.341978                    
V  8  17509.039406  -7900.912696  23326.409856      -.017867                    
P  9  -7233.378020  17874.493930 -18897.786378     69.333196                    
V  9 -20726.938967   9120.118216  17242.067236       .020513                    
P 10 -13481.526239   8497.951058  21132.811556    -20.216537                    
V 10 -21483.492757 -16644.106131  -6630.384437      -.006801                    
P 11   2811.415127 -19876.804032 -17443.148372    -12.887036                    
V 11  19407.113313 -11078.886721  16311.394175      -.016928                    
P 12   4917.362731  18842.513463 -18056.784668   -242.263419                    
V 12 -19489.826932 -12269.405158 -17928.140549       .060186                    
P 13  -6777.702235 -20634.387954  15149.221960    302.338396                    
V 13   4252.180673 -18985.951686 -23764.900452       .006712                    
P 14  13970.491495   4736.219391 -21972.024126    -72.339333                    
V 14  -3882.373612  27840.853899   3390.595808       .055285                    
P 15  -7761.549896  23976.928517   8303.491047   -311.600075                    
V 15  -1954.896087 -10723.930147  29281.174350      -.021888                    
P 16  17598.445482  -3728.168517  19672.118317     27.776023                    
V 16  19268.803910  15593.057473 -14080.263532      -.036643                    
P 17 -14512.103942  -5574.834098 -21482.250335     73.886965                    
V 17   3386.815219 -27221.282479   4570.438334       .026574                    
P 18  19863.747152  17724.920855   3033.990215      1.220255                    
V 18  -4656.425482    308.867528  30766.626329       .030632                    
P 19   8406.026216 -24326.078162   6020.686221     17.092856                    
V 19   1708.680086   8030.143616  30604.305141      -.014771                    
P 20  -6241.833467 -19336.413409 -17252.934829     75.985678                    
V 20  19134.994726  10450.416278 -18726.046870      -.009674                    
P 21  14656.652228   9939.027279  20233.318606      -.289360                    
V 21 -22559.332191  10873.919033  10522.888905      -.021972                    
P 22  23139.881659  10274.938713  -7997.369209    194.348303                    
V 22   6309.833860   8852.730741  28957.474421      -.007266                    
P 23    283.705945 -26172.540238   3373.844630    389.818001                    
V 23   3170.758902  -4077.089702 -31776.705185      -.002013                    
P 24   -101.130313  16310.560204  21132.070510    208.495177                    
V 24 -24856.520649   9284.639634  -7078.608697       .029432                    
P 25  -3482.911764 -15254.092664  21824.228900    531.780637                    
V 25  23406.985287 -13166.795792  -5366.806765       .166250                    
P 26   8199.903211  19095.499234 -16804.649796     64.755043                    
V 26  -4371.983710  19987.369971  21766.974526      -.000956                    
P 27 -13582.245522  17715.820063 -13705.112885     70.063633                    
V 27 -17344.490754   6872.089762  24852.676466       .031960                    
P 28 -22821.051885 -12634.771845  -5382.158521    -26.080257                    
V 28  -4428.746423  -6286.707999  30722.043931      -.000896                    
P 29   6607.333316  22188.339632  13158.990151     44.231933                    
V 29  -4165.156741  16146.686901 -25287.957236       .034462                    
P 30  14581.298129  19224.727898 -11563.352328    164.964205                    
V 30 -13167.940852  -5604.431023 -26726.339800       .028719                    
P 31  24947.704575  -7092.263496  -5860.881715    -64.394179                    
V 31  -6023.095899   5249.994328 -30777.325760      -.003645                    
P 32   1677.788397 -16894.867521 -20106.485438    223.402234                    
V 32  20702.100721  16285.555942 -11470.536171      -.063749                    
EOF
